QIANFAN-127             
1 69073U 26104A   26156.93538385  .00000123  00000+0  49602-4 0  9992
2 69073  88.9863 342.8890 0005344 137.1722 222.9886 14.21690886  3490
QIANFAN-128             
1 69074U 26104B   26156.85027601  .00000117  00000+0  50238-4 0  9998
2 69074  88.9864 342.9140 0004610 134.5563 225.6003 14.18045859  3479
QIANFAN-129             
1 69075U 26104C   26156.89372024  .00000136  00000+0  51371-4 0  9995
2 69075  88.9863 342.8827 0004970 143.0832 217.0704 14.25500471  3492
QIANFAN-130             
1 69076U 26104D   26156.83708845  .00000136  00000+0  58579-4 0  9991
2 69076  88.9863 342.9118 0004658 125.9192 234.2430 14.18735216  3472
QIANFAN-131             
1 69077U 26104E   26156.88027937  .00000111  00000+0  45041-4 0  9996
2 69077  88.9862 342.8993 0004186 141.0068 219.1425 14.20505685  3484
QIANFAN-132             
1 69078U 26104F   26156.91834713  .00000126  00000+0  54144-4 0  9999
2 69078  88.9863 342.9053 0005030 133.2797 226.8812 14.18147206  3488
QIANFAN-133             
1 69079U 26104G   26156.90261967  .00000130  00000+0  55529-4 0  9997
2 69079  88.9863 342.9028 0004596 143.1821 216.9685 14.19029014  3480
QIANFAN-135             
1 69081U 26104J   26156.89228337  .00000122  00000+0  50852-4 0  9997
2 69081  88.9864 342.9014 0004433 154.8999 205.2407 14.19621923  3484
QIANFAN-136             
1 69082U 26104K   26156.88821994  .00000125  00000+0  52214-4 0  9992
2 69082  88.9862 342.9006 0004878 143.4637 216.6887 14.19914245  3480
QIANFAN-137             
1 69083U 26104L   26156.90082359  .00000135  00000+0  51207-4 0  9992
2 69083  88.9863 342.8836 0005558 136.7337 223.4293 14.25196600  3492
QIANFAN-138             
1 69084U 26104M   26156.87648048  .00000125  00000+0  51201-4 0  9995
2 69084  88.9863 342.8989 0004408 145.1329 215.0151 14.20801784  3480
QIANFAN-139             
1 69085U 26104N   26156.87169419  .00000134  00000+0  55155-4 0  9998
2 69085  88.9864 342.8982 0004337 135.7000 224.4539 14.21102561  3489
QIANFAN-140             
1 69086U 26104P   26156.86722595  .00000126  00000+0  51144-4 0  9993
2 69086  88.9863 342.8974 0004389 140.1131 220.0383 14.21392133  3487
QIANFAN-141             
1 69087U 26104Q   26156.86314008  .00000129  00000+0  52067-4 0  9998
2 69087  88.9863 342.8967 0004008 136.2281 223.9228 14.21633544  3484
QIANFAN-142             
1 69088U 26104R   26156.85809865  .00000119  00000+0  47453-4 0  9990
2 69088  88.9863 342.8959 0005244 128.1087 232.0578 14.21952305  3481
QIANFAN-143             
1 69089U 26104S   26156.84563442  .00000126  00000+0  49546-4 0  9991
2 69089  88.9863 342.8940 0004553 130.1342 230.0250 14.23170896  3485
QIANFAN-144             
1 69090U 26104T   26156.85127446  .00000128  00000+0  50718-4 0  9999
2 69090  88.9863 342.8949 0003915 121.5606 238.5968 14.22581664  3481
2026-106A               
1 69097U 26106A   26155.63137572  .00009052  00000+0  54389-3 0  9996
2 69097  97.5095 237.9435 0013466 203.5034 156.5582 15.11037132  3085
2026-106B               
1 69098U 26106B   26155.63675397  .00006796  00000+0  42602-3 0  9996
2 69098  97.5082 237.9319 0014266 199.5733 160.4950 15.09575067  3086
2026-106C               
1 69099U 26106C   26155.63084001  .00008876  00000+0  53278-3 0  9995
2 69099  97.5097 237.9445 0013554 204.3760 155.6830 15.11076088  3082
2026-106D               
1 69100U 26106D   26155.62912235  .00008260  00000+0  49447-3 0  9996
2 69100  97.5062 237.9411 0013122 207.0214 153.0334 15.11202473  3085
2026-106E               
1 69101U 26106E   26155.62529263  .00009128  00000+0  54175-3 0  9990
2 69101  97.5073 237.9468 0015124 208.9127 151.1267 15.11460406  3083
QIANFAN-145             
1 69104U 26108A   26156.89431282  .00000313  00000+0  15097-3 0  9995
2 69104  89.0120  23.4782 0015520 149.2495 210.9605 14.16076173  2747
QIANFAN-146             
1 69105U 26108B   26156.90242707  .00000378  00000+0  16008-3 0  9994
2 69105  89.0123  23.4616 0015826 147.7826 212.4336 14.23383967  2756
